ONEWEB-0597             
1 54663U 22166X   24357.52730933  .00000022  00000+0  22631-4 0  9995
2 54663  87.9297 351.8968 0002008  83.4898 276.6465 13.21823844 99985
ONEWEB-0600             
1 54664U 22166Y   24357.50996515  .00000014  00000+0  24433-5 0  9998
2 54664  87.9291 351.9295 0001841  83.2274 276.9070 13.21824435 99953
ONEWEB-0601             
1 54665U 22166Z   24357.50208097  .00000063  00000+0  12213-3 0  9995
2 54665  87.9298 351.9094 0002232  83.7992 276.3396 13.21824013100146
ONEWEB-0602             
1 54666U 22166AA  24357.54309525  .00000114  00000+0  24552-3 0  9994
2 54666  87.9298 351.9033 0001917  80.1092 280.0258 13.21825774 99995
ONEWEB-0603             
1 54667U 22166AB  24357.54780841  .00000087  00000+0  17863-3 0  9995
2 54667  87.9273 351.8909 0002078  82.2792 277.8578 13.21823379 99920
ONEWEB-0604             
1 54668U 22166AC  24357.53520318  .00000007  00000+0 -13662-4 0  9993
2 54668  87.9294 351.8755 0001885  78.9197 281.2149 13.21825076 99883
ONEWEB-0605             
1 54669U 22166AD  24357.52890549 -.00000045  00000+0 -13931-3 0  9990
2 54669  87.9293 351.9085 0002523  89.8756 270.2667 13.21825448 99956
ONEWEB-0606             
1 54670U 22166AE  24357.55098375  .00000120  00000+0  25992-3 0  9994
2 54670  87.9298 351.9049 0001686  92.9141 267.2186 13.21826540100011
